[{"OBJECT_NAME":"STARLINK-1736","OBJECT_ID":"2020-070BF","EPOCH":"2026-03-09T10:02:57.052032","MEAN_MOTION":15.66676236,"ECCENTRICITY":0.00011151,"INCLINATION":53.042,"RA_OF_ASC_NODE":117.3157,"ARG_OF_PERICENTER":98.6487,"MEAN_ANOMALY":261.4655,"EPHEMERIS_TYPE":0,"CLASSIFICATION_TYPE":"U","NORAD_CAT_ID":46585,"ELEMENT_SET_NO":999,"REV_AT_EPOCH":30031,"BSTAR":0.00089725065,"MEAN_MOTION_DOT":0.00096585,"MEAN_MOTION_DDOT":0},{"OBJECT_NAME":"STARLINK-1922","OBJECT_ID":"2020-074Q","EPOCH":"2026-03-10T00:00:02.999808","MEAN_MOTION":15.64274627,"ECCENTRICITY":0.00017441,"INCLINATION":53.0458,"RA_OF_ASC_NODE":282.2242,"ARG_OF_PERICENTER":17.2501,"MEAN_ANOMALY":256.8441,"EPHEMERIS_TYPE":0,"CLASSIFICATION_TYPE":"U","NORAD_CAT_ID":46753,"ELEMENT_SET_NO":999,"REV_AT_EPOCH":594,"BSTAR":0.0021356149,"MEAN_MOTION_DOT":0.00212554,"MEAN_MOTION_DDOT":0}]
